0 FENGYUN 1C DEB
1 31767U 99025CFS 13281.44858045  .00000210  00000-0  16332-3 0  6899
2 31767 099.1179 267.3700 0042003 176.1008 346.7708 14.02918910325560
0 FENGYUN 1C DEB
1 31767U 99025CFS 13284.21058109  .00000386  00000-0  27614-3 0  6901
2 31767 099.1181 270.1361 0042120 168.6491 256.1033 14.02919880325955
0 FENGYUN 1C DEB
1 31767U 99025CFS 13286.44090895  .00000468  00000-0  32807-3 0  6918
2 31767 099.1183 272.3696 0042215 162.5628 000.3268 14.02921081326262
0 FENGYUN 1C DEB
1 31767U 99025CFS 13289.78487389  .00000593  00000-0  40845-3 0  6927
2 31767 099.1193 275.7176 0042340 153.4038 329.0079 14.02924559326732
0 FENGYUN 1C DEB
1 31767U 99025CFS 13292.19773270  .00000608  00000-0  41744-3 0  6930
2 31767 099.1202 278.1338 0042416 146.7747 275.1868 14.02927444327077
0 FENGYUN 1C DEB
1 31767U 99025CFS 13294.77737534  .00000575  00000-0  39667-3 0  6944
2 31767 099.1208 280.7174 0042495 139.7046 343.7197 14.02931247327434
